<?xml version="1.0" encoding="UTF-8"?>
<ndm xmlns:xsi="http://www.w3.org/2001/XMLSchema-instance" xsi:noNamespaceSchemaLocation="https://sanaregistry.org/r/ndmxml_unqualified/ndmxml-2.0.0-master-2.0.xsd">
<omm id="CCSDS_OMM_VERS" version="2.0">
<header><CREATION_DATE/><ORIGINATOR/></header><body><segment><metadata><OBJECT_NAME>STARLINK-4453</OBJECT_NAME><OBJECT_ID>2022-099AJ</OBJECT_ID><CENTER_NAME>EARTH</CENTER_NAME><REF_FRAME>TEME</REF_FRAME><TIME_SYSTEM>UTC</TIME_SYSTEM><MEAN_ELEMENT_THEORY>SGP4</MEAN_ELEMENT_THEORY></metadata><data><meanElements><EPOCH>2022-08-29T16:00:00.999936</EPOCH><MEAN_MOTION>15.65771845</MEAN_MOTION><ECCENTRICITY>.0001881</ECCENTRICITY><INCLINATION>97.6557</INCLINATION><RA_OF_ASC_NODE>0.4694</RA_OF_ASC_NODE><ARG_OF_PERICENTER>54.5131</ARG_OF_PERICENTER><MEAN_ANOMALY>30.6831</MEAN_ANOMALY></meanElements><tleParameters><EPHEMERIS_TYPE>0</EPHEMERIS_TYPE><CLASSIFICATION_TYPE>U</CLASSIFICATION_TYPE><NORAD_CAT_ID>53497</NORAD_CAT_ID><ELEMENT_SET_NO>999</ELEMENT_SET_NO><REV_AT_EPOCH>289</REV_AT_EPOCH><BSTAR>-.13595E-1</BSTAR><MEAN_MOTION_DOT>-.1233015E-1</MEAN_MOTION_DOT><MEAN_MOTION_DDOT>0</MEAN_MOTION_DDOT></tleParameters></data></segment></body></omm>
<omm id="CCSDS_OMM_VERS" version="2.0">
<header><CREATION_DATE/><ORIGINATOR/></header><body><segment><metadata><OBJECT_NAME>STARLINK-4439</OBJECT_NAME><OBJECT_ID>2022-099AK</OBJECT_ID><CENTER_NAME>EARTH</CENTER_NAME><REF_FRAME>TEME</REF_FRAME><TIME_SYSTEM>UTC</TIME_SYSTEM><MEAN_ELEMENT_THEORY>SGP4</MEAN_ELEMENT_THEORY></metadata><data><meanElements><EPOCH>2022-08-29T16:00:00.999936</EPOCH><MEAN_MOTION>15.65746288</MEAN_MOTION><ECCENTRICITY>.0001795</ECCENTRICITY><INCLINATION>97.6558</INCLINATION><RA_OF_ASC_NODE>0.4692</RA_OF_ASC_NODE><ARG_OF_PERICENTER>56.2579</ARG_OF_PERICENTER><MEAN_ANOMALY>27.0181</MEAN_ANOMALY></meanElements><tleParameters><EPHEMERIS_TYPE>0</EPHEMERIS_TYPE><CLASSIFICATION_TYPE>U</CLASSIFICATION_TYPE><NORAD_CAT_ID>53498</NORAD_CAT_ID><ELEMENT_SET_NO>999</ELEMENT_SET_NO><REV_AT_EPOCH>288</REV_AT_EPOCH><BSTAR>-.13542E-1</BSTAR><MEAN_MOTION_DOT>-.1227513E-1</MEAN_MOTION_DOT><MEAN_MOTION_DDOT>0</MEAN_MOTION_DDOT></tleParameters></data></segment></body></omm>
<omm id="CCSDS_OMM_VERS" version="2.0">
<header><CREATION_DATE/><ORIGINATOR/></header><body><segment><metadata><OBJECT_NAME>STARLINK-4454</OBJECT_NAME><OBJECT_ID>2022-099AL</OBJECT_ID><CENTER_NAME>EARTH</CENTER_NAME><REF_FRAME>TEME</REF_FRAME><TIME_SYSTEM>UTC</TIME_SYSTEM><MEAN_ELEMENT_THEORY>SGP4</MEAN_ELEMENT_THEORY></metadata><data><meanElements><EPOCH>2022-08-29T16:00:00.999936</EPOCH><MEAN_MOTION>15.65776505</MEAN_MOTION><ECCENTRICITY>.0001818</ECCENTRICITY><INCLINATION>97.6558</INCLINATION><RA_OF_ASC_NODE>0.4697</RA_OF_ASC_NODE><ARG_OF_PERICENTER>55.9435</ARG_OF_PERICENTER><MEAN_ANOMALY>29.8945</MEAN_ANOMALY></meanElements><tleParameters><EPHEMERIS_TYPE>0</EPHEMERIS_TYPE><CLASSIFICATION_TYPE>U</CLASSIFICATION_TYPE><NORAD_CAT_ID>53499</NORAD_CAT_ID><ELEMENT_SET_NO>999</ELEMENT_SET_NO><REV_AT_EPOCH>288</REV_AT_EPOCH><BSTAR>-.13551E-1</BSTAR><MEAN_MOTION_DOT>-.1229601E-1</MEAN_MOTION_DOT><MEAN_MOTION_DDOT>0</MEAN_MOTION_DDOT></tleParameters></data></segment></body></omm>
<omm id="CCSDS_OMM_VERS" version="2.0">
<header><CREATION_DATE/><ORIGINATOR/></header><body><segment><metadata><OBJECT_NAME>STARLINK-4455</OBJECT_NAME><OBJECT_ID>2022-099AM</OBJECT_ID><CENTER_NAME>EARTH</CENTER_NAME><REF_FRAME>TEME</REF_FRAME><TIME_SYSTEM>UTC</TIME_SYSTEM><MEAN_ELEMENT_THEORY>SGP4</MEAN_ELEMENT_THEORY></metadata><data><meanElements><EPOCH>2022-08-29T16:00:00.999936</EPOCH><MEAN_MOTION>15.65758429</MEAN_MOTION><ECCENTRICITY>.0001785</ECCENTRICITY><INCLINATION>97.6559</INCLINATION><RA_OF_ASC_NODE>0.4692</RA_OF_ASC_NODE><ARG_OF_PERICENTER>58.6420</ARG_OF_PERICENTER><MEAN_ANOMALY>25.9166</MEAN_ANOMALY></meanElements><tleParameters><EPHEMERIS_TYPE>0</EPHEMERIS_TYPE><CLASSIFICATION_TYPE>U</CLASSIFICATION_TYPE><NORAD_CAT_ID>53500</NORAD_CAT_ID><ELEMENT_SET_NO>999</ELEMENT_SET_NO><REV_AT_EPOCH>289</REV_AT_EPOCH><BSTAR>-.135E-1</BSTAR><MEAN_MOTION_DOT>-.1224617E-1</MEAN_MOTION_DOT><MEAN_MOTION_DDOT>0</MEAN_MOTION_DDOT></tleParameters></data></segment></body></omm>
<omm id="CCSDS_OMM_VERS" version="2.0">
<header><CREATION_DATE/><ORIGINATOR/></header><body><segment><metadata><OBJECT_NAME>STARLINK-4434</OBJECT_NAME><OBJECT_ID>2022-099AN</OBJECT_ID><CENTER_NAME>EARTH</CENTER_NAME><REF_FRAME>TEME</REF_FRAME><TIME_SYSTEM>UTC</TIME_SYSTEM><MEAN_ELEMENT_THEORY>SGP4</MEAN_ELEMENT_THEORY></metadata><data><meanElements><EPOCH>2022-08-29T16:00:00.999936</EPOCH><MEAN_MOTION>15.65804423</MEAN_MOTION><ECCENTRICITY>.0001868</ECCENTRICITY><INCLINATION>97.6558</INCLINATION><RA_OF_ASC_NODE>0.4700</RA_OF_ASC_NODE><ARG_OF_PERICENTER>54.4262</ARG_OF_PERICENTER><MEAN_ANOMALY>33.3300</MEAN_ANOMALY></meanElements><tleParameters><EPHEMERIS_TYPE>0</EPHEMERIS_TYPE><CLASSIFICATION_TYPE>U</CLASSIFICATION_TYPE><NORAD_CAT_ID>53501</NORAD_CAT_ID><ELEMENT_SET_NO>999</ELEMENT_SET_NO><REV_AT_EPOCH>288</REV_AT_EPOCH><BSTAR>-.1364E-1</BSTAR><MEAN_MOTION_DOT>-.1238139E-1</MEAN_MOTION_DOT><MEAN_MOTION_DDOT>0</MEAN_MOTION_DDOT></tleParameters></data></segment></body></omm>
<omm id="CCSDS_OMM_VERS" version="2.0">
<header><CREATION_DATE/><ORIGINATOR/></header><body><segment><metadata><OBJECT_NAME>STARLINK-4435</OBJECT_NAME><OBJECT_ID>2022-099AP</OBJECT_ID><CENTER_NAME>EARTH</CENTER_NAME><REF_FRAME>TEME</REF_FRAME><TIME_SYSTEM>UTC</TIME_SYSTEM><MEAN_ELEMENT_THEORY>SGP4</MEAN_ELEMENT_THEORY></metadata><data><meanElements><EPOCH>2022-08-29T16:00:00.999936</EPOCH><MEAN_MOTION>15.65785227</MEAN_MOTION><ECCENTRICITY>.0001783</ECCENTRICITY><INCLINATION>97.6557</INCLINATION><RA_OF_ASC_NODE>0.4695</RA_OF_ASC_NODE><ARG_OF_PERICENTER>62.8149</ARG_OF_PERICENTER><MEAN_ANOMALY>23.6627</MEAN_ANOMALY></meanElements><tleParameters><EPHEMERIS_TYPE>0</EPHEMERIS_TYPE><CLASSIFICATION_TYPE>U</CLASSIFICATION_TYPE><NORAD_CAT_ID>53502</NORAD_CAT_ID><ELEMENT_SET_NO>999</ELEMENT_SET_NO><REV_AT_EPOCH>288</REV_AT_EPOCH><BSTAR>-.1357E-1</BSTAR><MEAN_MOTION_DOT>-.1231526E-1</MEAN_MOTION_DOT><MEAN_MOTION_DDOT>0</MEAN_MOTION_DDOT></tleParameters></data></segment></body></omm>
<omm id="CCSDS_OMM_VERS" version="2.0">
<header><CREATION_DATE/><ORIGINATOR/></header><body><segment><metadata><OBJECT_NAME>STARLINK-4461</OBJECT_NAME><OBJECT_ID>2022-099AQ</OBJECT_ID><CENTER_NAME>EARTH</CENTER_NAME><REF_FRAME>TEME</REF_FRAME><TIME_SYSTEM>UTC</TIME_SYSTEM><MEAN_ELEMENT_THEORY>SGP4</MEAN_ELEMENT_THEORY></metadata><data><meanElements><EPOCH>2022-08-29T16:00:00.999936</EPOCH><MEAN_MOTION>15.65810740</MEAN_MOTION><ECCENTRICITY>.0001701</ECCENTRICITY><INCLINATION>97.6557</INCLINATION><RA_OF_ASC_NODE>0.4698</RA_OF_ASC_NODE><ARG_OF_PERICENTER>68.6265</ARG_OF_PERICENTER><MEAN_ANOMALY>19.7703</MEAN_ANOMALY></meanElements><tleParameters><EPHEMERIS_TYPE>0</EPHEMERIS_TYPE><CLASSIFICATION_TYPE>U</CLASSIFICATION_TYPE><NORAD_CAT_ID>53503</NORAD_CAT_ID><ELEMENT_SET_NO>999</ELEMENT_SET_NO><REV_AT_EPOCH>288</REV_AT_EPOCH><BSTAR>-.13622E-1</BSTAR><MEAN_MOTION_DOT>-.1236877E-1</MEAN_MOTION_DOT><MEAN_MOTION_DDOT>0</MEAN_MOTION_DDOT></tleParameters></data></segment></body></omm>
<omm id="CCSDS_OMM_VERS" version="2.0">
<header><CREATION_DATE/><ORIGINATOR/></header><body><segment><metadata><OBJECT_NAME>STARLINK-4448</OBJECT_NAME><OBJECT_ID>2022-099AR</OBJECT_ID><CENTER_NAME>EARTH</CENTER_NAME><REF_FRAME>TEME</REF_FRAME><TIME_SYSTEM>UTC</TIME_SYSTEM><MEAN_ELEMENT_THEORY>SGP4</MEAN_ELEMENT_THEORY></metadata><data><meanElements><EPOCH>2022-08-29T16:00:00.999936</EPOCH><MEAN_MOTION>15.65788636</MEAN_MOTION><ECCENTRICITY>.0001748</ECCENTRICITY><INCLINATION>97.6558</INCLINATION><RA_OF_ASC_NODE>0.4694</RA_OF_ASC_NODE><ARG_OF_PERICENTER>61.4727</ARG_OF_PERICENTER><MEAN_ANOMALY>25.6473</MEAN_ANOMALY></meanElements><tleParameters><EPHEMERIS_TYPE>0</EPHEMERIS_TYPE><CLASSIFICATION_TYPE>U</CLASSIFICATION_TYPE><NORAD_CAT_ID>53504</NORAD_CAT_ID><ELEMENT_SET_NO>999</ELEMENT_SET_NO><REV_AT_EPOCH>288</REV_AT_EPOCH><BSTAR>-.13508E-1</BSTAR><MEAN_MOTION_DOT>-.1226594E-1</MEAN_MOTION_DOT><MEAN_MOTION_DDOT>0</MEAN_MOTION_DDOT></tleParameters></data></segment></body></omm>

</ndm>
